0 DELTA 1 DEB
1 26844U 75052KY  13282.02231449  .00000309  00000-0  48341-3 0  8426
2 26844 100.0442 113.2072 0047156 201.4484 315.2425 13.58724615 63822
0 DELTA 1 DEB
1 26844U 75052KY  13285.77289561  .00000301  00000-0  47269-3 0  8430
2 26844 100.0437 117.0448 0047173 192.0601 300.9334 13.58727165 64330
0 DELTA 1 DEB
1 26844U 75052KY  13288.34830213  .00000382  00000-0  58329-3 0  8441
2 26844 100.0435 119.6800 0047151 185.6291 298.3495 13.58729518 64687
0 DELTA 1 DEB
1 26844U 75052KY  13291.49527488  .00000322  00000-0  50092-3 0  8452
2 26844 100.0434 122.8999 0047175 177.7502 211.5903 13.58731990 65111
0 DELTA 1 DEB
1 26844U 75052KY  13293.79653185  .00000367  00000-0  56271-3 0  8466
2 26844 100.0434 125.2544 0047188 171.9705 308.0982 13.58733737 65423
